{
  "type": "FeatureCollection",
  "features": [
    {
      "type": "Feature",
      "properties": {
        "norad_id": 66954,
        "name": "HULIANWANG DIGUI-115",
        "group": "last-30-days",
        "lat": 22.213708578393693,
        "lon": -17.362911751209705,
        "alt_km": 1022.265034564537,
        "timestamp": "2025-12-26T09:30:52.343794+00:00",
        "meta_object_name": "HULIANWANG DIGUI-115",
        "meta_object_id": "2025-287B",
        "meta_epoch": "2025-12-24T22:10:56.489088",
        "meta_mean_motion": 13.63539042,
        "meta_eccentricity": 0.0003385,
        "meta_inclination": 86.5036,
        "meta_ra_of_asc_node": 341.7372,
        "meta_arg_of_pericenter": 109.9724,
        "meta_mean_anomaly": 250.1798,
        "meta_ephemeris_type": 0,
        "meta_classification_type": "U",
        "meta_norad_cat_id": 66954,
        "meta_element_set_no": 999,
        "meta_rev_at_epoch": 219,
        "meta_bstar": 8.442119e-06,
        "meta_mean_motion_dot": 2.3e-07,
        "meta_mean_motion_ddot": 0,
        "tle_line1": "1 66954U 25287B   25358.92426492  .00000023  00000+0  84421-5 0  9993",
        "tle_line2": "2 66954  86.5036 341.7372 0003385 109.9724 250.1798 13.63539042  2198"
      },
      "geometry": {
        "type": "Point",
        "coordinates": [
          -17.362911751209705,
          22.213708578393693
        ]
      }
    },
    {
      "type": "Feature",
      "properties": {
        "norad_id": 66955,
        "name": "HULIANWANG DIGUI-116",
        "group": "last-30-days",
        "lat": 38.05673434073537,
        "lon": -16.069270277189776,
        "alt_km": 1016.9546907890681,
        "timestamp": "2025-12-26T09:30:52.343804+00:00",
        "meta_object_name": "HULIANWANG DIGUI-116",
        "meta_object_id": "2025-287C",
        "meta_epoch": "2025-12-24T23:52:55.515936",
        "meta_mean_motion": 13.64194122,
        "meta_eccentricity": 0.00016332,
        "meta_inclination": 86.4919,
        "meta_ra_of_asc_node": 341.6856,
        "meta_arg_of_pericenter": 94.3011,
        "meta_mean_anomaly": 265.8333,
        "meta_ephemeris_type": 0,
        "meta_classification_type": "U",
        "meta_norad_cat_id": 66955,
        "meta_element_set_no": 999,
        "meta_rev_at_epoch": 220,
        "meta_bstar": 0.0001652864,
        "meta_mean_motion_dot": 1.48e-06,
        "meta_mean_motion_ddot": 0,
        "tle_line1": "1 66955U 25287C   25358.99508699  .00000148  00000+0  16529-3 0  9991",
        "tle_line2": "2 66955  86.4919 341.6856 0001633  94.3011 265.8333 13.64194122  2201"
      },
      "geometry": {
        "type": "Point",
        "coordinates": [
          -16.069270277189776,
          38.05673434073537
        ]
      }
    },
    {
      "type": "Feature",
      "properties": {
        "norad_id": 66956,
        "name": "HULIANWANG DIGUI-117",
        "group": "last-30-days",
        "lat": 53.559387776089594,
        "lon": -14.051090790583281,
        "alt_km": 1013.2362558961158,
        "timestamp": "2025-12-26T09:30:52.343814+00:00",
        "meta_object_name": "HULIANWANG DIGUI-117",
        "meta_object_id": "2025-287D",
        "meta_epoch": "2025-12-24T22:03:29.281824",
        "meta_mean_motion": 13.64670553,
        "meta_eccentricity": 0.00010447,
        "meta_inclination": 86.4976,
        "meta_ra_of_asc_node": 341.7257,
        "meta_arg_of_pericenter": 103.5815,
        "meta_mean_anomaly": 256.5458,
        "meta_ephemeris_type": 0,
        "meta_classification_type": "U",
        "meta_norad_cat_id": 66956,
        "meta_element_set_no": 999,
        "meta_rev_at_epoch": 219,
        "meta_bstar": 9.025962e-06,
        "meta_mean_motion_dot": 2.4e-07,
        "meta_mean_motion_ddot": 0,
        "tle_line1": "1 66956U 25287D   25358.91908891  .00000024  00000+0  90260-5 0  9991",
        "tle_line2": "2 66956  86.4976 341.7257 0001044 103.5815 256.5458 13.64670553  2192"
      },
      "geometry": {
        "type": "Point",
        "coordinates": [
          -14.051090790583281,
          53.559387776089594
        ]
      }
    },
    {
      "type": "Feature",
      "properties": {
        "norad_id": 66957,
        "name": "HULIANWANG DIGUI-118",
        "group": "last-30-days",
        "lat": 79.81440615884907,
        "lon": 141.23231062648566,
        "alt_km": 998.9490198540079,
        "timestamp": "2025-12-26T09:30:52.343824+00:00",
        "meta_object_name": "HULIANWANG DIGUI-118",
        "meta_object_id": "2025-287E",
        "meta_epoch": "2025-12-21T00:50:13.849728",
        "meta_mean_motion": 13.6751011,
        "meta_eccentricity": 0.00054729,
        "meta_inclination": 86.4946,
        "meta_ra_of_asc_node": 343.1304,
        "meta_arg_of_pericenter": 170.9065,
        "meta_mean_anomaly": 189.2194,
        "meta_ephemeris_type": 0,
        "meta_classification_type": "U",
        "meta_norad_cat_id": 66957,
        "meta_element_set_no": 999,
        "meta_rev_at_epoch": 166,
        "meta_bstar": 0.00013223305,
        "meta_mean_motion_dot": 1.28e-06,
        "meta_mean_motion_ddot": 0,
        "tle_line1": "1 66957U 25287E   25355.03488252  .00000128  00000+0  13223-3 0  9993",
        "tle_line2": "2 66957  86.4946 343.1304 0005472 170.9065 189.2194 13.67510110  1668"
      },
      "geometry": {
        "type": "Point",
        "coordinates": [
          141.23231062648566,
          79.81440615884907
        ]
      }
    },
    {
      "type": "Feature",
      "properties": {
        "norad_id": 66958,
        "name": "CZ-6A R/B",
        "group": "last-30-days",
        "lat": -37.11094540973718,
        "lon": -21.740045686615844,
        "alt_km": 928.1164999611965,
        "timestamp": "2025-12-26T09:30:52.343834+00:00",
        "meta_object_name": "CZ-6A R/B",
        "meta_object_id": "2025-287F",
        "meta_epoch": "2025-12-25T19:55:09.303456",
        "meta_mean_motion": 13.94921619,
        "meta_eccentricity": 0.01070989,
        "meta_inclination": 86.5065,
        "meta_ra_of_asc_node": 341.1242,
        "meta_arg_of_pericenter": 62.8058,
        "meta_mean_anomaly": 298.3983,
        "meta_ephemeris_type": 0,
        "meta_classification_type": "U",
        "meta_norad_cat_id": 66958,
        "meta_element_set_no": 999,
        "meta_rev_at_epoch": 236,
        "meta_bstar": 5.7918422e-05,
        "meta_mean_motion_dot": 1e-06,
        "meta_mean_motion_ddot": 0,
        "tle_line1": "1 66958U 25287F   25359.82996879  .00000100  00000+0  57918-4 0  9994",
        "tle_line2": "2 66958  86.5065 341.1242 0107098  62.8058 298.3983 13.94921619  2365"
      },
      "geometry": {
        "type": "Point",
        "coordinates": [
          -21.740045686615844,
          -37.11094540973718
        ]
      }
    },
    {
      "type": "Feature",
      "properties": {
        "norad_id": 66959,
        "name": "STARLINK-35887",
        "group": "last-30-days",
        "lat": -42.96773235366204,
        "lon": -7.592874176497157,
        "alt_km": 388.30970097619047,
        "timestamp": "2025-12-26T09:30:52.343844+00:00",
        "meta_object_name": "STARLINK-35887",
        "meta_object_id": "2025-288A",
        "meta_epoch": "2025-12-26T04:00:01.998720",
        "meta_mean_motion": 15.61559676,
        "meta_eccentricity": 0.0001563,
        "meta_inclination": 43.0002,
        "meta_ra_of_asc_node": 85.4224,
        "meta_arg_of_pericenter": 280.9725,
        "meta_mean_anomaly": 135.11,
        "meta_ephemeris_type": 0,
        "meta_classification_type": "U",
        "meta_norad_cat_id": 66959,
        "meta_element_set_no": 999,
        "meta_rev_at_epoch": 398,
        "meta_bstar": -0.025038,
        "meta_mean_motion_dot": -0.01947429,
        "meta_mean_motion_ddot": 0,
        "tle_line1": "1 66959U 25288A   25360.16668980 -.01947429  00000+0 -25038-1 0  9996",
        "tle_line2": "2 66959  43.0002  85.4224 0001563 280.9725 135.1100 15.61559676  3981"
      },
      "geometry": {
        "type": "Point",
        "coordinates": [
          -7.592874176497157,
          -42.96773235366204
        ]
      }
    },
    {
      "type": "Feature",
      "properties": {
        "norad_id": 66960,
        "name": "STARLINK-35879",
        "group": "last-30-days",
        "lat": -42.97541336611512,
        "lon": -4.981989519958101,
        "alt_km": 388.3346508170889,
        "timestamp": "2025-12-26T09:30:52.343858+00:00",
        "meta_object_name": "STARLINK-35879",
        "meta_object_id": "2025-288B",
        "meta_epoch": "2025-12-26T04:00:01.998720",
        "meta_mean_motion": 15.61554311,
        "meta_eccentricity": 0.0001502,
        "meta_inclination": 43.0001,
        "meta_ra_of_asc_node": 85.4168,
        "meta_arg_of_pericenter": 277.3328,
        "meta_mean_anomaly": 140.6683,
        "meta_ephemeris_type": 0,
        "meta_classification_type": "U",
        "meta_norad_cat_id": 66960,
        "meta_element_set_no": 999,
        "meta_rev_at_epoch": 398,
        "meta_bstar": -0.024972,
        "meta_mean_motion_dot": -0.01942513,
        "meta_mean_motion_ddot": 0,
        "tle_line1": "1 66960U 25288B   25360.16668980 -.01942513  00000+0 -24972-1 0  9993",
        "tle_line2": "2 66960  43.0001  85.4168 0001502 277.3328 140.6683 15.61554311  3989"
      },
      "geometry": {
        "type": "Point",
        "coordinates": [
          -4.981989519958101,
          -42.97541336611512
        ]
      }
    }
  ]
}